OBJECT_NAME,OBJECT_ID,EPOCH,MEAN_MOTION,ECCENTRICITY,INCLINATION,RA_OF_ASC_NODE,ARG_OF_PERICENTER,MEAN_ANOMALY,EPHEMERIS_TYPE,CLASSIFICATION_TYPE,NORAD_CAT_ID,ELEMENT_SET_NO,REV_AT_EPOCH,BSTAR,MEAN_MOTION_DOT,MEAN_MOTION_DDOT
INNOSAT 3 (RS92S0),2025-155U,2026-06-19T21:43:24.144384,15.43990258,.00069016,97.4489,142.4662,144.3111,215.8599,0,U,64894,999,8138,.70544239E-3,.32168E-3,0
KNACKSAT-2,1998-067XZ,2026-06-19T14:13:09.931584,15.60167582,.00089348,51.6307,282.3774,225.7617,134.2643,0,U,67683,999,2065,.49084338E-3,.40473E-3,0
